[{"OBJECT_NAME":"STARLINK-4595","OBJECT_ID":"2022-104AR","EPOCH":"2026-03-09T17:17:42.692928","MEAN_MOTION":15.08839138,"ECCENTRICITY":0.00012831,"INCLINATION":53.2163,"RA_OF_ASC_NODE":233.6996,"ARG_OF_PERICENTER":87.2127,"MEAN_ANOMALY":272.9012,"EPHEMERIS_TYPE":0,"CLASSIFICATION_TYPE":"U","NORAD_CAT_ID":53627,"ELEMENT_SET_NO":999,"REV_AT_EPOCH":19576,"BSTAR":5.479446e-6,"MEAN_MOTION_DOT":-2.01e-6,"MEAN_MOTION_DDOT":0},{"OBJECT_NAME":"NANOFF A","OBJECT_ID":"2023-185T","EPOCH":"2026-03-09T23:34:34.415328","MEAN_MOTION":15.11542977,"ECCENTRICITY":0.00086783,"INCLINATION":97.5359,"RA_OF_ASC_NODE":137.8345,"ARG_OF_PERICENTER":292.8968,"MEAN_ANOMALY":67.1346,"EPHEMERIS_TYPE":0,"CLASSIFICATION_TYPE":"U","NORAD_CAT_ID":58810,"ELEMENT_SET_NO":999,"REV_AT_EPOCH":11805,"BSTAR":0.00027314844,"MEAN_MOTION_DOT":4.57e-5,"MEAN_MOTION_DDOT":0}]
